[{"OBJECT_NAME":"STARLINK-33956","OBJECT_ID":"2025-098B","EPOCH":"2026-03-09T20:56:17.811168","MEAN_MOTION":14.9808157,"ECCENTRICITY":0.00013171,"INCLINATION":70.002,"RA_OF_ASC_NODE":273.8381,"ARG_OF_PERICENTER":251.6573,"MEAN_ANOMALY":108.4443,"EPHEMERIS_TYPE":0,"CLASSIFICATION_TYPE":"U","NORAD_CAT_ID":63927,"ELEMENT_SET_NO":999,"REV_AT_EPOCH":4660,"BSTAR":-0.0029688164,"MEAN_MOTION_DOT":-0.0003511,"MEAN_MOTION_DDOT":0},{"OBJECT_NAME":"FENGYUN 1C DEB","OBJECT_ID":"1999-025BGH","EPOCH":"2026-03-07T00:32:23.805600","MEAN_MOTION":14.61103727,"ECCENTRICITY":0.01714734,"INCLINATION":98.0965,"RA_OF_ASC_NODE":89.6303,"ARG_OF_PERICENTER":27.2612,"MEAN_ANOMALY":2.829,"EPHEMERIS_TYPE":0,"CLASSIFICATION_TYPE":"U","NORAD_CAT_ID":31087,"ELEMENT_SET_NO":999,"REV_AT_EPOCH":1,"BSTAR":0.00094332925,"MEAN_MOTION_DOT":5.664e-5,"MEAN_MOTION_DDOT":0}]
